NORAD_CAT_ID,OBJECT_NAME,OBJECT_TYPE,EPOCH,MEAN_MOTION,ECCENTRICITY,INCLINATION,RA_OF_ASC_NODE,ARG_OF_PERICENTER,MEAN_ANOMALY,BSTAR,MEAN_MOTION_DOT,MEAN_MOTION_DDOT,TLE_LINE0,TLE_LINE1,TLE_LINE2,SEMIMAJOR_AXIS,PERIOD,APOGEE,PERIGEE,DECAYED
55436.0,STARLINK-5640,PAYLOAD,2023-02-07 16:00:01,15.70492038,0.000334,70.0077,70.0959,275.8114,290.3929,-0.0069575,-0.00781359,0.0,0 STARLINK-5640,1 55436U 23014AX  23038.66668981 -.00781359  00000-0 -69575-2 0  9998,2 55436  70.0077  70.0959 0003340 275.8114 290.3929 15.70492038  1301,6735.627,91.691,359.741,355.242,0.0
55436.0,STARLINK-5640,PAYLOAD,2023-02-07 22:00:00,15.69905246,0.0003317,70.0076,69.3929,269.122,269.833,0.00037573,0.00045173,0.0,0 STARLINK-5640,1 55436U 23014AX  23038.91667824  .00045173  00000-0  37573-3 0  9990,2 55436  70.0076  69.3929 0003317 269.1220 269.8330 15.69905246  1301,6737.305,91.725,361.405,356.935,0.0
55436.0,STARLINK-5640,PAYLOAD,2023-02-08 14:00:01,15.69939807,0.000355,70.0058,67.5188,278.463,67.1456,-0.00010304,-0.00012592,0.0,0 STARLINK-5640,1 55436U 23014AX  23039.58334491 -.00012592  00000-0 -10304-3 0  9999,2 55436  70.0058  67.5188 0003550 278.4630  67.1456 15.69939807  1448,6737.206,91.723,361.463,356.68,0.0
55436.0,STARLINK-5640,PAYLOAD,2023-02-08 22:00:00,15.69877071,0.0003566,70.004,66.5822,271.0663,157.9163,0.00073304,0.00088696,0.0,0 STARLINK-5640,1 55436U 23014AX  23039.91667824  .00088696  00000-0  73304-3 0  9990,2 55436  70.0040  66.5822 0003566 271.0663 157.9163 15.69877071  1307,6737.386,91.727,361.653,356.848,0.0
55436.0,STARLINK-5640,PAYLOAD,2023-02-09 12:00:00,15.69897483,0.0003613,70.0007,64.9424,278.5144,206.3057,0.00030872,0.00037033,0.0,0 STARLINK-5640,1 55436U 23014AX  23040.50001157  .00037033  00000-0  30872-3 0  9990,2 55436  70.0007  64.9424 0003613 278.5144 206.3057 15.69897483  1309,6737.327,91.726,361.626,356.758,0.0
55436.0,STARLINK-5640,PAYLOAD,2023-02-09 20:00:01,15.69874431,0.0003598,70.0002,64.005,271.8573,296.2965,0.0006366,0.00076882,0.0,0 STARLINK-5640,1 55436U 23014AX  23040.83334491  .00076882  00000-0  63660-3 0  9992,2 55436  70.0002  64.0050 0003598 271.8573 296.2965 15.69874431  1645,6737.393,91.727,361.682,356.834,0.0
55436.0,STARLINK-5640,PAYLOAD,2023-02-09 22:00:00,15.69862504,0.0003611,70.0001,63.7708,269.818,49.1656,0.0010491,0.00127547,0.0,0 STARLINK-5640,1 55436U 23014AX  23040.91667824  .00127547  00000-0  10491-2 0  9998,2 55436  70.0001  63.7708 0003611 269.8180  49.1656 15.69862504  1300,6737.427,91.728,361.725,356.859,0.0
55436.0,STARLINK-5640,PAYLOAD,2023-02-10 02:00:01,15.69949941,0.0003582,70.0004,63.3023,269.6187,271.0014,-0.00029741,-0.00035861,0.0,0 STARLINK-5640,1 55436U 23014AX  23041.08334491 -.00035861  00000-0 -29741-3 0  9996,2 55436  70.0004  63.3023 0003582 269.6187 271.0014 15.69949941  1676,6737.177,91.723,361.455,356.629,0.0
55436.0,STARLINK-5640,PAYLOAD,2023-02-10 04:00:00,15.69966416,0.0003647,70.0004,63.0677,271.1265,20.3306,-0.00054156,-0.00064948,0.0,0 STARLINK-5640,1 55436U 23014AX  23041.16667824 -.00064948  00000-0 -54156-3 0  9990,2 55436  70.0004  63.0677 0003647 271.1265  20.3306 15.69966416  1300,6737.13,91.722,361.452,356.538,0.0
55436.0,STARLINK-5640,PAYLOAD,2023-02-10 22:00:00,15.69856639,0.0003493,70.0,60.9593,265.9967,302.9913,0.0012689,0.00154778,0.0,0 STARLINK-5640,1 55436U 23014AX  23041.91667824  .00154778  00000-0  12689-2 0  9996,2 55436  70.0000  60.9593 0003493 265.9967 302.9913 15.69856639  1812,6737.444,91.728,361.663,356.956,0.0
55436.0,STARLINK-5640,PAYLOAD,2023-02-11 00:00:00,15.69919563,0.0003472,70.0001,60.7251,266.0286,53.7694,0.00040595,0.00048876,0.0,0 STARLINK-5640,1 55436U 23014AX  23042.00001157  .00048876  00000-0  40595-3 0  9997,2 55436  70.0001  60.7251 0003472 266.0286  53.7694 15.69919563  1829,6737.264,91.724,361.468,356.79,0.0
55436.0,STARLINK-5640,PAYLOAD,2023-02-11 18:31:18,15.69934904,0.0003145,70.0024,58.556,273.119,86.9646,0.00014567,0.00017346,0.0,0 STARLINK-5640,1 55436U 23014AX  23042.77174030  .00017346  00000-0  14567-3 0  9990,2 55436  70.0024  58.5560 0003145 273.1190  86.9646 15.69934904  1946,6737.22,91.724,361.204,356.966,0.0
55436.0,STARLINK-5640,PAYLOAD,2023-02-12 22:00:00,15.69877184,0.0003251,70.0,55.3362,266.6015,82.3949,0.0008946,0.00108544,0.0,0 STARLINK-5640,1 55436U 23014AX  23043.91667824  .00108544  00000-0  89460-3 0  9990,2 55436  70.0000  55.3362 0003251 266.6015  82.3949 15.69877184  2129,6737.385,91.727,361.441,357.06,0.0
55436.0,STARLINK-5640,PAYLOAD,2023-02-13 06:00:00,15.69936811,0.0003374,70.0003,54.3992,270.831,161.4917,-0.00033843,-0.00040731,0.0,0 STARLINK-5640,1 55436U 23014AX  23044.25001157 -.00040731  00000-0 -33843-3 0  9998,2 55436  70.0003  54.3992 0003374 270.8310 161.4917 15.69936811  2173,6737.215,91.723,361.353,356.807,0.0
55436.0,STARLINK-5640,PAYLOAD,2023-02-13 14:00:01,15.69933687,0.0003432,69.9997,53.4619,272.591,243.0654,-0.00019184,-0.00023226,0.0,0 STARLINK-5640,1 55436U 23014AX  23044.58334491 -.00023226  00000-0 -19184-3 0  9996,2 55436  69.9997  53.4619 0003432 272.5910 243.0654 15.69933687  1305,6737.224,91.724,361.401,356.777,0.0
55436.0,STARLINK-5640,PAYLOAD,2023-02-13 22:00:00,15.69901185,0.0003499,69.9997,52.5247,265.6519,333.3358,0.00056607,0.00068345,0.0,0 STARLINK-5640,1 55436U 23014AX  23044.91667824  .00068345  00000-0  56607-3 0  9992,2 55436  69.9997  52.5247 0003499 265.6519 333.3358 15.69901185  2283,6737.317,91.726,361.539,356.824,0.0
55436.0,STARLINK-5640,PAYLOAD,2023-02-14 00:00:00,15.69943879,0.0003451,70.0,52.2905,266.2855,83.5231,-8.7164e-05,-0.00010689,0.0,0 STARLINK-5640,1 55436U 23014AX  23045.00001157 -.00010689  00000-0 -87164-4 0  9997,2 55436  70.0000  52.2905 0003451 266.2855  83.5231 15.69943879  2298,6737.195,91.723,361.385,356.735,0.0
55436.0,STARLINK-5640,PAYLOAD,2023-02-14 12:16:38,15.69940099,0.0003608,70.0001,50.8525,269.6323,90.4459,0.0001931,0.00023086,0.0,0 STARLINK-5640,1 55436U 23014AX  23045.51155989  .00023086  00000-0  19310-3 0  9996,2 55436  70.0001  50.8525 0003608 269.6323  90.4459 15.69940099  3316,6737.205,91.723,361.501,356.64,0.0
55436.0,STARLINK-5640,PAYLOAD,2023-02-15 03:34:15,15.69604502,0.0003487,70.0001,49.0606,261.4731,98.607,-0.0013804,-0.00160922,0.0,0 STARLINK-5640,1 55436U 23014AX  23046.14879383 -.00160922  00000-0 -13804-2 0  9991,2 55436  70.0001  49.0606 0003487 261.4731  98.6070 15.69604502  2475,6738.166,91.743,362.38,357.681,0.0
55436.0,STARLINK-5640,PAYLOAD,2023-02-15 06:37:50,15.6943552,0.0004245,69.9999,48.7028,266.2096,93.8614,-0.001867,-0.00214741,0.0,0 STARLINK-5640,1 55436U 23014AX  23046.27628456 -.00214741  00000-0 -18670-2 0  9993,2 55436  69.9999  48.7028 0004245 266.2096  93.8614 15.69435520  2497,6738.649,91.753,363.375,357.654,0.0
55436.0,STARLINK-5640,PAYLOAD,2023-02-15 09:41:30,15.69123249,0.0003155,69.9997,48.3441,264.0968,95.9868,-0.0027912,-0.00313079,0.0,0 STARLINK-5640,1 55436U 23014AX  23046.40382260 -.00313079  00000-0 -27912-2 0  9991,2 55436  69.9997  48.3441 0003155 264.0968  95.9868 15.69123249  2512,6739.543,91.771,363.535,359.282,0.0
55436.0,STARLINK-5640,PAYLOAD,2023-02-15 12:45:10,15.68851377,0.0003032,69.9997,47.9865,267.254,92.8308,-0.0031636,-0.00349364,0.0,0 STARLINK-5640,1 55436U 23014AX  23046.53136855 -.00349364  00000-0 -31636-2 0  9996,2 55436  69.9997  47.9865 0003032 267.2540  92.8308 15.68851377  3472,6740.322,91.787,364.231,360.143,0.0
55436.0,STARLINK-5640,PAYLOAD,2023-02-15 18:52:27,15.68472161,0.0003648,69.9997,47.2715,266.3147,93.7631,-0.0050059,-0.00532623,0.0,0 STARLINK-5640,1 55436U 23014AX  23046.78642918 -.00532623  00000-0 -50059-2 0  9997,2 55436  69.9997  47.2715 0003648 266.3147  93.7631 15.68472161  2574,6741.408,91.809,365.733,360.814,0.0
55436.0,STARLINK-5640,PAYLOAD,2023-02-15 21:55:50,15.69427159,0.000783,69.9997,46.9126,267.7899,92.24,0.0010478,0.00125237,0.0,0 STARLINK-5640,1 55436U 23014AX  23046.91377863  .00125237  00000-0  10478-2 0  9994,2 55436  69.9997  46.9126 0007830 267.7899  92.2400 15.69427159  3535,6738.673,91.753,365.815,355.262,0.0
55436.0,STARLINK-5640,PAYLOAD,2023-02-17 22:00:00,15.62245032,0.0003455,69.9993,41.3253,269.5344,208.1379,-0.015009,-0.01195202,0.0,0 STARLINK-5640,1 55436U 23014AX  23048.91667824 -.01195202  00000-0 -15009-1 0  9991,2 55436  69.9993  41.3253 0003455 269.5344 208.1379 15.62245032  2909,6759.311,92.175,383.511,378.84,0.0
55436.0,STARLINK-5640,PAYLOAD,2023-02-18 14:00:01,15.60555369,0.0003441,69.9991,39.4744,270.2196,353.6057,-0.017003,-0.01260426,0.0,0 STARLINK-5640,1 55436U 23014AX  23049.58334491 -.01260426  00000-0 -17003-1 0  9993,2 55436  69.9991  39.4744 0003441 270.2196 353.6057 15.60555369  3016,6764.189,92.275,388.381,383.726,0.0
55436.0,STARLINK-5640,PAYLOAD,2023-02-19 06:00:00,15.58767008,0.0003508,69.9996,37.6286,271.1082,134.7733,-0.016354,-0.01144242,0.0,0 STARLINK-5640,1 55436U 23014AX  23050.25001157 -.01144242  00000-0 -16354-1 0  9994,2 55436  69.9996  37.6286 0003508 271.1082 134.7733 15.58767008  3112,6769.361,92.381,393.601,388.852,0.0
55436.0,STARLINK-5640,PAYLOAD,2023-02-19 14:00:01,15.57967864,0.0003406,69.9992,36.707,271.9048,203.4313,-0.018489,-0.01243554,0.0,0 STARLINK-5640,1 55436U 23014AX  23050.58334491 -.01243554  00000-0 -18489-1 0  9997,2 55436  69.9992  36.7070 0003406 271.9048 203.4313 15.57967864  1304,6771.676,92.428,395.848,391.235,0.0
55436.0,STARLINK-5640,PAYLOAD,2023-02-19 22:00:00,15.57102818,0.0003271,69.9995,35.787,265.0785,278.6936,-0.018555,-0.01211519,0.0,0 STARLINK-5640,1 55436U 23014AX  23050.91667824 -.01211519  00000-0 -18555-1 0  9993,2 55436  69.9995  35.7870 0003271 265.0785 278.6936 15.57102818  3224,6774.184,92.479,398.265,393.833,0.0
55436.0,STARLINK-5640,PAYLOAD,2023-02-20 14:00:01,15.55383699,0.0003313,69.9997,33.9501,270.9396,46.6358,-0.020135,-0.01230867,0.0,0 STARLINK-5640,1 55436U 23014AX  23051.58334491 -.01230867  00000-0 -20135-1 0  9992,2 55436  69.9997  33.9501 0003313 270.9396  46.6358 15.55383699  1301,6779.174,92.582,403.285,398.794,0.0
